[{"OBJECT_NAME":"TIANMU-1 22","OBJECT_ID":"2023-208D","EPOCH":"2026-03-09T22:39:05.738688","MEAN_MOTION":15.29457749,"ECCENTRICITY":0.00031332,"INCLINATION":97.4379,"RA_OF_ASC_NODE":184.9419,"ARG_OF_PERICENTER":351.9312,"MEAN_ANOMALY":8.1877,"EPHEMERIS_TYPE":0,"CLASSIFICATION_TYPE":"U","NORAD_CAT_ID":58663,"ELEMENT_SET_NO":999,"REV_AT_EPOCH":12215,"BSTAR":0.00038239675,"MEAN_MOTION_DOT":0.00010851,"MEAN_MOTION_DDOT":0},{"OBJECT_NAME":"STARLINK-34774","OBJECT_ID":"2025-263A","EPOCH":"2026-03-09T04:13:32.424672","MEAN_MOTION":15.27561475,"ECCENTRICITY":0.000182,"INCLINATION":43.0043,"RA_OF_ASC_NODE":353.3213,"ARG_OF_PERICENTER":252.6515,"MEAN_ANOMALY":107.4138,"EPHEMERIS_TYPE":0,"CLASSIFICATION_TYPE":"U","NORAD_CAT_ID":66485,"ELEMENT_SET_NO":999,"REV_AT_EPOCH":1882,"BSTAR":0.0011355911,"MEAN_MOTION_DOT":0.00031101,"MEAN_MOTION_DDOT":0}]
